ONEWEB-0388             
1 49314U 21090AM  25235.29621709  .00000000  00000+0 -31533-4 0  9995
2 49314  87.9261   4.2038 0001991  97.6242 262.5117 13.19724918187121
ONEWEB-0389             
1 50469U 21132A   25235.22519709  .00000029  00000+0  42295-4 0  9991
2 50469  87.9032  65.1562 0002034  97.4889 262.6474 13.17649248178848
ONEWEB-0390             
1 50470U 21132B   25235.07499290 -.00000035  00000+0 -12363-3 0  9999
2 50470  87.9032  65.1923 0001518  94.4044 265.7261 13.17649025178826
ONEWEB-0391             
1 50471U 21132C   25235.22856520  .00000027  00000+0  36508-4 0  9997
2 50471  87.9027  65.1758 0002140 112.4678 247.6681 13.17649952178849
ONEWEB-0392             
1 50472U 21132D   25232.90491765  .00000056  00000+0  11008-3 0  9995
2 50472  87.9028  65.5841 0001966 100.1394 259.9959 13.17648970178575
ONEWEB-0393             
1 50473U 21132E   25232.80208518  .00000053  00000+0  10351-3 0  9994
2 50473  87.9030  65.6245 0001863  94.0947 266.0397 13.17651305178558
ONEWEB-0394             
1 50474U 21132F   25235.20669389  .00000003  00000+0 -25357-4 0  9998
2 50474  87.9152  34.6150 0001953  95.9503 264.1852 13.18685356182322
ONEWEB-0395             
1 50475U 21132G   25235.07555608 -.00000125  00000+0 -38738-3 0  9994
2 50475  87.8776  80.4892 0001669  95.8406 264.2913 13.11418303176647
ONEWEB-0396             
1 50476U 21132H   25235.20009616  .00000070  00000+0  14530-3 0  9994
2 50476  87.9150  34.6284 0001893  95.5295 264.6053 13.18686096182361
ONEWEB-0397             
1 50477U 21132J   25235.13905143 -.00000009  00000+0 -56400-4 0  9994
2 50477  87.9150  34.6416 0001980  91.8488 268.2871 13.18687565182336
ONEWEB-0398             
1 50478U 21132K   25235.27223598  .00000029  00000+0  46027-4 0  9991
2 50478  87.8781  80.4134 0001324  92.5128 267.6151 13.11414949176562
ONEWEB-0399             
1 50479U 21132L   25235.10606703  .00002175  00000+0  60974-2 0  9996
2 50479  87.8778  80.4706 0001756  89.1227 271.0103 13.11430352176534
ONEWEB-0400             
1 50480U 21132M   25235.19348023 -.00000032  00000+0 -11269-3 0  9991
2 50480  87.9149  34.6210 0001603  97.3121 262.8193 13.18687374182332
ONEWEB-0401             
1 50481U 21132N   25235.16216194 -.00000016  00000+0 -73969-4 0  9990
2 50481  87.9151  34.6234 0001953  88.8917 271.2439 13.18685431182337
ONEWEB-0402             
1 50482U 21132P   25235.20172696  .00000035  00000+0  55535-4 0  9992
2 50482  87.9150  34.6090 0002158  78.5474 281.5901 13.18683334182360
ONEWEB-0403             
1 50483U 21132Q   25234.99885380 -.00000007  00000+0 -50258-4 0  9997
2 50483  87.9151  34.6680 0001842  97.2333 262.9009 13.18687581182290
ONEWEB-0404             
1 50484U 21132R   25234.55335227  .00000376  00000+0  10252-2 0  9995
2 50484  87.8783  80.5861 0001911  95.8232 264.3114 13.11417248176550
