[{"OBJECT_NAME":"ONEWEB-0388","OBJECT_ID":"2021-090AM","EPOCH":"2025-08-23T07:06:33.156576","MEAN_MOTION":13.19724918,"ECCENTRICITY":0.00019916,"INCLINATION":87.9261,"RA_OF_ASC_NODE":4.2038,"ARG_OF_PERICENTER":97.6242,"MEAN_ANOMALY":262.5117,"EPHEMERIS_TYPE":0,"CLASSIFICATION_TYPE":"U","NORAD_CAT_ID":49314,"ELEMENT_SET_NO":999,"REV_AT_EPOCH":18712,"BSTAR":-3.1533366e-5,"MEAN_MOTION_DOT":0,"MEAN_MOTION_DDOT":0},{"OBJECT_NAME":"ONEWEB-0389","OBJECT_ID":"2021-132A","EPOCH":"2025-08-23T05:24:17.028576","MEAN_MOTION":13.17649248,"ECCENTRICITY":0.00020348,"INCLINATION":87.9032,"RA_OF_ASC_NODE":65.1562,"ARG_OF_PERICENTER":97.4889,"MEAN_ANOMALY":262.6474,"EPHEMERIS_TYPE":0,"CLASSIFICATION_TYPE":"U","NORAD_CAT_ID":50469,"ELEMENT_SET_NO":999,"REV_AT_EPOCH":17884,"BSTAR":4.2295271e-5,"MEAN_MOTION_DOT":2.9e-7,"MEAN_MOTION_DDOT":0},{"OBJECT_NAME":"ONEWEB-0390","OBJECT_ID":"2021-132B","EPOCH":"2025-08-23T01:47:59.386560","MEAN_MOTION":13.17649025,"ECCENTRICITY":0.00015184,"INCLINATION":87.9032,"RA_OF_ASC_NODE":65.1923,"ARG_OF_PERICENTER":94.4044,"MEAN_ANOMALY":265.7261,"EPHEMERIS_TYPE":0,"CLASSIFICATION_TYPE":"U","NORAD_CAT_ID":50470,"ELEMENT_SET_NO":999,"REV_AT_EPOCH":17882,"BSTAR":-0.0001236339,"MEAN_MOTION_DOT":-3.5e-7,"MEAN_MOTION_DDOT":0},{"OBJECT_NAME":"ONEWEB-0391","OBJECT_ID":"2021-132C","EPOCH":"2025-08-23T05:29:08.033280","MEAN_MOTION":13.17649952,"ECCENTRICITY":0.00021401,"INCLINATION":87.9027,"RA_OF_ASC_NODE":65.1758,"ARG_OF_PERICENTER":112.4678,"MEAN_ANOMALY":247.6681,"EPHEMERIS_TYPE":0,"CLASSIFICATION_TYPE":"U","NORAD_CAT_ID":50471,"ELEMENT_SET_NO":999,"REV_AT_EPOCH":17884,"BSTAR":3.6507547e-5,"MEAN_MOTION_DOT":2.7e-7,"MEAN_MOTION_DDOT":0},{"OBJECT_NAME":"ONEWEB-0392","OBJECT_ID":"2021-132D","EPOCH":"2025-08-20T21:43:04.884960","MEAN_MOTION":13.1764897,"ECCENTRICITY":0.0001966,"INCLINATION":87.9028,"RA_OF_ASC_NODE":65.5841,"ARG_OF_PERICENTER":100.1394,"MEAN_ANOMALY":259.9959,"EPHEMERIS_TYPE":0,"CLASSIFICATION_TYPE":"U","NORAD_CAT_ID":50472,"ELEMENT_SET_NO":999,"REV_AT_EPOCH":17857,"BSTAR":0.00011008,"MEAN_MOTION_DOT":5.6e-7,"MEAN_MOTION_DDOT":0},{"OBJECT_NAME":"ONEWEB-0393","OBJECT_ID":"2021-132E","EPOCH":"2025-08-20T19:15:00.159552","MEAN_MOTION":13.17651305,"ECCENTRICITY":0.0001863,"INCLINATION":87.903,"RA_OF_ASC_NODE":65.6245,"ARG_OF_PERICENTER":94.0947,"MEAN_ANOMALY":266.0397,"EPHEMERIS_TYPE":0,"CLASSIFICATION_TYPE":"U","NORAD_CAT_ID":50473,"ELEMENT_SET_NO":999,"REV_AT_EPOCH":17855,"BSTAR":0.00010351,"MEAN_MOTION_DOT":5.3e-7,"MEAN_MOTION_DDOT":0},{"OBJECT_NAME":"ONEWEB-0394","OBJECT_ID":"2021-132F","EPOCH":"2025-08-23T04:57:38.352096","MEAN_MOTION":13.18685356,"ECCENTRICITY":0.00019535,"INCLINATION":87.9152,"RA_OF_ASC_NODE":34.615,"ARG_OF_PERICENTER":95.9503,"MEAN_ANOMALY":264.1852,"EPHEMERIS_TYPE":0,"CLASSIFICATION_TYPE":"U","NORAD_CAT_ID":50474,"ELEMENT_SET_NO":999,"REV_AT_EPOCH":18232,"BSTAR":-2.5357149e-5,"MEAN_MOTION_DOT":3.0e-8,"MEAN_MOTION_DDOT":0},{"OBJECT_NAME":"ONEWEB-0395","OBJECT_ID":"2021-132G","EPOCH":"2025-08-23T01:48:48.045312","MEAN_MOTION":13.11418303,"ECCENTRICITY":0.00016697,"INCLINATION":87.8776,"RA_OF_ASC_NODE":80.4892,"ARG_OF_PERICENTER":95.8406,"MEAN_ANOMALY":264.2913,"EPHEMERIS_TYPE":0,"CLASSIFICATION_TYPE":"U","NORAD_CAT_ID":50475,"ELEMENT_SET_NO":999,"REV_AT_EPOCH":17664,"BSTAR":-0.00038738108,"MEAN_MOTION_DOT":-1.25e-6,"MEAN_MOTION_DDOT":0},{"OBJECT_NAME":"ONEWEB-0396","OBJECT_ID":"2021-132H","EPOCH":"2025-08-23T04:48:08.308224","MEAN_MOTION":13.18686096,"ECCENTRICITY":0.0001893,"INCLINATION":87.915,"RA_OF_ASC_NODE":34.6284,"ARG_OF_PERICENTER":95.5295,"MEAN_ANOMALY":264.6053,"EPHEMERIS_TYPE":0,"CLASSIFICATION_TYPE":"U","NORAD_CAT_ID":50476,"ELEMENT_SET_NO":999,"REV_AT_EPOCH":18236,"BSTAR":0.00014529899,"MEAN_MOTION_DOT":7.0e-7,"MEAN_MOTION_DDOT":0},{"OBJECT_NAME":"ONEWEB-0397","OBJECT_ID":"2021-132J","EPOCH":"2025-08-23T03:20:14.043552","MEAN_MOTION":13.18687565,"ECCENTRICITY":0.00019805,"INCLINATION":87.915,"RA_OF_ASC_NODE":34.6416,"ARG_OF_PERICENTER":91.8488,"MEAN_ANOMALY":268.2871,"EPHEMERIS_TYPE":0,"CLASSIFICATION_TYPE":"U","NORAD_CAT_ID":50477,"ELEMENT_SET_NO":999,"REV_AT_EPOCH":18233,"BSTAR":-5.6400274e-5,"MEAN_MOTION_DOT":-9.0e-8,"MEAN_MOTION_DDOT":0},{"OBJECT_NAME":"ONEWEB-0398","OBJECT_ID":"2021-132K","EPOCH":"2025-08-23T06:32:01.188672","MEAN_MOTION":13.11414949,"ECCENTRICITY":0.00013249,"INCLINATION":87.8781,"RA_OF_ASC_NODE":80.4134,"ARG_OF_PERICENTER":92.5128,"MEAN_ANOMALY":267.6151,"EPHEMERIS_TYPE":0,"CLASSIFICATION_TYPE":"U","NORAD_CAT_ID":50478,"ELEMENT_SET_NO":999,"REV_AT_EPOCH":17656,"BSTAR":4.6026923e-5,"MEAN_MOTION_DOT":2.9e-7,"MEAN_MOTION_DDOT":0},{"OBJECT_NAME":"ONEWEB-0399","OBJECT_ID":"2021-132L","EPOCH":"2025-08-23T02:32:44.191392","MEAN_MOTION":13.11430352,"ECCENTRICITY":0.00017566,"INCLINATION":87.8778,"RA_OF_ASC_NODE":80.4706,"ARG_OF_PERICENTER":89.1227,"MEAN_ANOMALY":271.0103,"EPHEMERIS_TYPE":0,"CLASSIFICATION_TYPE":"U","NORAD_CAT_ID":50479,"ELEMENT_SET_NO":999,"REV_AT_EPOCH":17653,"BSTAR":0.0060973603,"MEAN_MOTION_DOT":2.175e-5,"MEAN_MOTION_DDOT":0},{"OBJECT_NAME":"ONEWEB-0400","OBJECT_ID":"2021-132M","EPOCH":"2025-08-23T04:38:36.691872","MEAN_MOTION":13.18687374,"ECCENTRICITY":0.00016031,"INCLINATION":87.9149,"RA_OF_ASC_NODE":34.621,"ARG_OF_PERICENTER":97.3121,"MEAN_ANOMALY":262.8193,"EPHEMERIS_TYPE":0,"CLASSIFICATION_TYPE":"U","NORAD_CAT_ID":50480,"ELEMENT_SET_NO":999,"REV_AT_EPOCH":18233,"BSTAR":-0.00011268718,"MEAN_MOTION_DOT":-3.2e-7,"MEAN_MOTION_DDOT":0},{"OBJECT_NAME":"ONEWEB-0401","OBJECT_ID":"2021-132N","EPOCH":"2025-08-23T03:53:30.791616","MEAN_MOTION":13.18685431,"ECCENTRICITY":0.00019531,"INCLINATION":87.9151,"RA_OF_ASC_NODE":34.6234,"ARG_OF_PERICENTER":88.8917,"MEAN_ANOMALY":271.2439,"EPHEMERIS_TYPE":0,"CLASSIFICATION_TYPE":"U","NORAD_CAT_ID":50481,"ELEMENT_SET_NO":999,"REV_AT_EPOCH":18233,"BSTAR":-7.3969358e-5,"MEAN_MOTION_DOT":-1.6e-7,"MEAN_MOTION_DDOT":0},{"OBJECT_NAME":"ONEWEB-0402","OBJECT_ID":"2021-132P","EPOCH":"2025-08-23T04:50:29.209344","MEAN_MOTION":13.18683334,"ECCENTRICITY":0.00021581,"INCLINATION":87.915,"RA_OF_ASC_NODE":34.609,"ARG_OF_PERICENTER":78.5474,"MEAN_ANOMALY":281.5901,"EPHEMERIS_TYPE":0,"CLASSIFICATION_TYPE":"U","NORAD_CAT_ID":50482,"ELEMENT_SET_NO":999,"REV_AT_EPOCH":18236,"BSTAR":5.5534822e-5,"MEAN_MOTION_DOT":3.5e-7,"MEAN_MOTION_DDOT":0},{"OBJECT_NAME":"ONEWEB-0403","OBJECT_ID":"2021-132Q","EPOCH":"2025-08-22T23:58:20.968320","MEAN_MOTION":13.18687581,"ECCENTRICITY":0.0001842,"INCLINATION":87.9151,"RA_OF_ASC_NODE":34.668,"ARG_OF_PERICENTER":97.2333,"MEAN_ANOMALY":262.9009,"EPHEMERIS_TYPE":0,"CLASSIFICATION_TYPE":"U","NORAD_CAT_ID":50483,"ELEMENT_SET_NO":999,"REV_AT_EPOCH":18229,"BSTAR":-5.0257756e-5,"MEAN_MOTION_DOT":-7.0e-8,"MEAN_MOTION_DDOT":0},{"OBJECT_NAME":"ONEWEB-0404","OBJECT_ID":"2021-132R","EPOCH":"2025-08-22T13:16:49.636128","MEAN_MOTION":13.11417248,"ECCENTRICITY":0.00019119,"INCLINATION":87.8783,"RA_OF_ASC_NODE":80.5861,"ARG_OF_PERICENTER":95.8232,"MEAN_ANOMALY":264.3114,"EPHEMERIS_TYPE":0,"CLASSIFICATION_TYPE":"U","NORAD_CAT_ID":50484,"ELEMENT_SET_NO":999,"REV_AT_EPOCH":17655,"BSTAR":0.0010252327,"MEAN_MOTION_DOT":3.76e-6,"MEAN_MOTION_DDOT":0}]
